NORAD_CAT_ID,OBJECT_NAME,OBJECT_TYPE,EPOCH,MEAN_MOTION,ECCENTRICITY,INCLINATION,RA_OF_ASC_NODE,ARG_OF_PERICENTER,MEAN_ANOMALY,BSTAR,MEAN_MOTION_DOT,MEAN_MOTION_DDOT,TLE_LINE0,TLE_LINE1,TLE_LINE2,SEMIMAJOR_AXIS,PERIOD,APOGEE,PERIGEE,DECAYED
53892.0,STARLINK-5046,PAYLOAD,2024-07-17 01:45:20,15.08853547,0.0001249,53.2165,140.2675,84.8417,275.2718,0.00013013,1.784e-05,0.0,0 STARLINK-5046,1 53892U 22119G   24199.07315364  .00001784  00000-0  13013-3 0  9997,2 53892  53.2165 140.2675 0001249  84.8417 275.2718 15.08853547100597,6917.839,95.437,540.568,538.84,0.0
53892.0,STARLINK-5046,PAYLOAD,2024-07-17 12:53:02,15.08859762,0.0001145,53.2154,138.1848,77.2712,282.8408,0.00029942,4.483e-05,0.0,0 STARLINK-5046,1 53892U 22119G   24199.53683321  .00004483  00000-0  29942-3 0  9996,2 53892  53.2154 138.1848 0001145  77.2712 282.8408 15.08859762101082,6917.82,95.436,540.477,538.893,0.0
53892.0,STARLINK-5046,PAYLOAD,2024-07-18 04:46:54,15.08844967,0.0001646,53.2168,135.2147,76.3968,283.7207,9.9925e-05,1.303e-05,0.0,0 STARLINK-5046,1 53892U 22119G   24200.19924031  .00001303  00000-0  99925-4 0  9994,2 53892  53.2168 135.2147 0001646  76.3968 283.7207 15.08844967100768,6917.865,95.437,540.869,538.592,0.0
53892.0,STARLINK-5046,PAYLOAD,2024-07-19 03:02:18,15.08841305,0.0001588,53.2157,131.0523,67.9613,292.1548,0.00025174,3.721e-05,0.0,0 STARLINK-5046,1 53892U 22119G   24201.12660647  .00003721  00000-0  25174-3 0  9998,2 53892  53.2157 131.0523 0001588  67.9613 292.1548 15.08841305100907,6917.876,95.437,540.84,538.643,0.0
53892.0,STARLINK-5046,PAYLOAD,2024-07-19 12:34:38,15.0883483,0.0001655,53.216,129.2702,74.0051,286.1123,0.00043028,6.566e-05,0.0,0 STARLINK-5046,1 53892U 22119G   24201.52405183  .00006566  00000-0  43028-3 0  9992,2 53892  53.2160 129.2702 0001655  74.0051 286.1123 15.08834830100962,6917.896,95.438,540.906,538.616,0.0
53892.0,STARLINK-5046,PAYLOAD,2024-07-20 12:25:25,15.0884091,0.0001377,53.2162,124.8072,97.6118,262.503,0.00041634,6.344e-05,0.0,0 STARLINK-5046,1 53892U 22119G   24202.51765051  .00006344  00000-0  41634-3 0  9990,2 53892  53.2162 124.8072 0001377  97.6118 262.5030 15.08840910101536,6917.878,95.437,540.695,538.79,0.0
53892.0,STARLINK-5046,PAYLOAD,2024-07-21 04:19:15,15.08854604,0.0001561,53.2171,121.8306,95.922,264.195,0.00036021,5.452e-05,0.0,0 STARLINK-5046,1 53892U 22119G   24203.18004358  .00005452  00000-0  36021-3 0  9993,2 53892  53.2171 121.8306 0001561  95.9220 264.1950 15.08854604101212,6917.836,95.437,540.781,538.621,0.0
53892.0,STARLINK-5046,PAYLOAD,2024-07-21 21:48:30,15.08847894,0.0001922,53.2154,118.5587,107.9919,252.1282,0.00018805,2.707e-05,0.0,0 STARLINK-5046,1 53892U 22119G   24203.90868568  .00002707  00000-0  18805-3 0  9994,2 53892  53.2154 118.5587 0001922 107.9919 252.1282 15.08847894101743,6917.856,95.437,541.051,538.392,0.0
53892.0,STARLINK-5046,PAYLOAD,2024-07-22 00:59:16,15.08850936,0.0001497,53.2167,117.9681,88.8965,271.2199,0.0001751,2.501e-05,0.0,0 STARLINK-5046,1 53892U 22119G   24204.04116532  .00002501  00000-0  17510-3 0  9991,2 53892  53.2167 117.9681 0001497  88.8965 271.2199 15.08850936101346,6917.847,95.437,540.748,538.676,0.0
53892.0,STARLINK-5046,PAYLOAD,2024-07-22 18:28:31,15.0884638,0.0001559,53.2166,114.6975,84.5941,275.5229,0.00021307,3.105e-05,0.0,0 STARLINK-5046,1 53892U 22119G   24204.76980651  .00003105  00000-0  21307-3 0  9991,2 53892  53.2166 114.6975 0001559  84.5941 275.5229 15.08846380101452,6917.861,95.437,540.804,538.647,0.0
53892.0,STARLINK-5046,PAYLOAD,2024-07-23 10:22:22,15.08846657,0.0001741,53.2159,111.7201,64.6107,295.5065,0.00016629,2.36e-05,0.0,0 STARLINK-5046,1 53892U 22119G   24205.43220463  .00002360  00000-0  16629-3 0  9997,2 53892  53.2159 111.7201 0001741  64.6107 295.5065 15.08846657101974,6917.86,95.437,540.929,538.521,0.0
53892.0,STARLINK-5046,PAYLOAD,2024-07-23 18:19:18,15.08828081,0.0001786,53.2167,110.2415,95.6103,264.5093,-0.00015736,-2.791e-05,0.0,0 STARLINK-5046,1 53892U 22119G   24205.76341402 -.00002791  00000-0 -15736-3 0  9998,2 53892  53.2167 110.2415 0001786  95.6103 264.5093 15.08828081101601,6917.917,95.438,541.017,538.546,0.0
53892.0,STARLINK-5046,PAYLOAD,2024-07-24 03:51:37,15.08829483,0.0001625,53.2175,108.4514,107.4775,252.6395,-0.00011803,-2.165e-05,0.0,0 STARLINK-5046,1 53892U 22119G   24206.16085628 -.00002165  00000-0 -11803-3 0  9994,2 53892  53.2175 108.4514 0001625 107.4775 252.6395 15.08829483102081,6917.913,95.438,540.902,538.653,0.0
53892.0,STARLINK-5046,PAYLOAD,2024-07-24 22:56:15,15.08844937,0.0001588,53.2182,104.8865,104.2461,255.8708,0.00019733,2.854e-05,0.0,0 STARLINK-5046,1 53892U 22119G   24206.95573232  .00002854  00000-0  19733-3 0  9997,2 53892  53.2182 104.8865 0001588 104.2461 255.8708 15.08844937102201,6917.865,95.437,540.829,538.632,0.0
53892.0,STARLINK-5046,PAYLOAD,2024-07-25 16:25:29,15.08841617,8.8e-05,53.2145,101.615,84.8966,275.2126,0.0002852,4.254e-05,0.0,0 STARLINK-5046,1 53892U 22119G   24207.68437493  .00004254  00000-0  28520-3 0  9996,2 53892  53.2145 101.6150 0000880  84.8966 275.2126 15.08841617101895,6917.875,95.437,540.349,539.132,0.0
53892.0,STARLINK-5046,PAYLOAD,2024-07-25 21:11:39,15.08836019,0.0001285,53.2144,100.7213,43.2331,316.8762,0.00026414,3.918e-05,0.0,0 STARLINK-5046,1 53892U 22119G   24207.88310003  .00003918  00000-0  26414-3 0  9991,2 53892  53.2144 100.7213 0001285  43.2331 316.8762 15.08836019102348,6917.893,95.438,540.647,538.869,0.0
53892.0,STARLINK-5046,PAYLOAD,2024-07-26 01:57:48,15.08844029,0.000104,53.2149,99.8279,83.0327,277.0783,0.00027366,4.071e-05,0.0,0 STARLINK-5046,1 53892U 22119G   24208.08181519  .00004071  00000-0  27366-3 0  9990,2 53892  53.2149  99.8279 0001040  83.0327 277.0783 15.08844029102373,6917.868,95.437,540.453,539.014,0.0
53892.0,STARLINK-5046,PAYLOAD,2024-07-26 09:54:44,15.08845608,0.0001189,53.2146,98.3411,78.5896,281.523,0.00016585,2.353e-05,0.0,0 STARLINK-5046,1 53892U 22119G   24208.41301374  .00002353  00000-0  16585-3 0  9992,2 53892  53.2146  98.3411 0001189  78.5896 281.5230 15.08845608102423,6917.863,95.437,540.551,538.906,0.0
53892.0,STARLINK-5046,PAYLOAD,2024-07-27 22:28:36,15.08839386,0.000135,53.2151,91.4993,85.5724,274.5422,4.8722e-05,4.88e-06,0.0,0 STARLINK-5046,1 53892U 22119G   24209.93653613  .00000488  00000-0  48722-4 0  9992,2 53892  53.2151  91.4993 0001350  85.5724 274.5422 15.08839386102652,6917.882,95.438,540.681,538.813,0.0
53892.0,STARLINK-5046,PAYLOAD,2024-07-28 22:19:23,15.08837016,0.00017,53.2174,87.0419,93.2106,266.9081,0.00018618,2.676e-05,0.0,0 STARLINK-5046,1 53892U 22119G   24210.93013672  .00002676  00000-0  18618-3 0  9990,2 53892  53.2174  87.0419 0001700  93.2106 266.9081 15.08837016102801,6917.89,95.438,540.931,538.578,0.0
53892.0,STARLINK-5046,PAYLOAD,2024-07-29 20:34:47,15.08842134,0.0001687,53.2174,82.8788,93.4414,266.6771,0.00019647,2.84e-05,0.0,0 STARLINK-5046,1 53892U 22119G   24211.85749726  .00002840  00000-0  19647-3 0  9994,2 53892  53.2174  82.8788 0001687  93.4414 266.6771 15.08842134102520,6917.874,95.437,540.906,538.572,0.0
53892.0,STARLINK-5046,PAYLOAD,2024-07-29 22:10:10,15.08844553,0.0001685,53.2166,82.581,93.7883,266.3302,0.00025204,3.726e-05,0.0,0 STARLINK-5046,1 53892U 22119G   24211.92373832  .00003726  00000-0  25204-3 0  9993,2 53892  53.2166  82.5810 0001685  93.7883 266.3302 15.08844553102956,6917.866,95.437,540.897,538.566,0.0
53892.0,STARLINK-5046,PAYLOAD,2024-07-30 22:00:57,15.08851495,0.0001732,53.2163,78.1219,96.1143,264.0047,0.00020418,2.964e-05,0.0,0 STARLINK-5046,1 53892U 22119G   24212.91733383  .00002964  00000-0  20418-3 0  9999,2 53892  53.2163  78.1219 0001732  96.1143 264.0047 15.08851495103108,6917.845,95.437,540.908,538.512,0.0
53892.0,STARLINK-5046,PAYLOAD,2024-07-31 07:33:16,15.0885239,9.28e-05,53.216,76.3365,84.7569,275.3529,0.00020644,3e-05,0.0,0 STARLINK-5046,1 53892U 22119G   24213.31477156  .00003000  00000-0  20644-3 0  9990,2 53892  53.2160  76.3365 0000928  84.7569 275.3529 15.08852390103169,6917.843,95.437,540.349,539.066,0.0
53892.0,STARLINK-5046,PAYLOAD,2024-07-31 20:16:22,15.08833109,0.0001548,53.2171,73.9612,95.5259,264.591,-6.3493e-05,-1.298e-05,0.0,0 STARLINK-5046,1 53892U 22119G   24213.84470338 -.00001298  00000-0 -63493-4 0  9992,2 53892  53.2171  73.9612 0001548  95.5259 264.5910 15.08833109102827,6917.901,95.438,540.837,538.696,0.0
53892.0,STARLINK-5046,PAYLOAD,2024-08-01 07:24:04,15.08841119,0.0001564,53.2184,71.8806,98.8356,261.2813,-9.2786e-06,-4.36e-06,0.0,0 STARLINK-5046,1 53892U 22119G   24214.30837963 -.00000436  00000-0 -92786-5 0  9996,2 53892  53.2184  71.8806 0001564  98.8356 261.2813 15.08841119103316,6917.877,95.437,540.824,538.66,0.0
53892.0,STARLINK-5046,PAYLOAD,2024-08-01 21:42:31,15.08861077,0.0001316,53.2162,69.2033,94.5344,265.5799,0.00049907,7.668e-05,0.0,0 STARLINK-5046,1 53892U 22119G   24214.90453160  .00007668  00000-0  49907-3 0  9992,2 53892  53.2162  69.2033 0001316  94.5344 265.5799 15.08861077102987,6917.816,95.436,540.591,538.771,0.0
53892.0,STARLINK-5046,PAYLOAD,2024-08-02 07:14:50,15.08846955,9e-05,53.2167,67.4167,82.7774,277.3321,0.00024153,3.559e-05,0.0,0 STARLINK-5046,1 53892U 22119G   24215.30197434  .00003559  00000-0  24153-3 0  9997,2 53892  53.2167  67.4167 0000900  82.7774 277.3321 15.08846955103042,6917.859,95.437,540.347,539.102,0.0
53892.0,STARLINK-5046,PAYLOAD,2024-08-02 19:57:56,15.08835454,0.0001443,53.216,65.0387,86.4758,273.6399,1.4978e-05,-5e-07,0.0,0 STARLINK-5046,1 53892U 22119G   24215.83190261 -.00000050  00000-0  14978-4 0  9995,2 53892  53.2160  65.0387 0001443  86.4758 273.6399 15.08835454103124,6917.894,95.438,540.758,538.761,0.0
53892.0,STARLINK-5046,PAYLOAD,2024-08-02 21:33:19,15.08835129,0.0001467,53.2159,64.7415,86.2121,273.9039,0.000318,4.776e-05,0.0,0 STARLINK-5046,1 53892U 22119G   24215.89814272  .00004776  00000-0  31800-3 0  9996,2 53892  53.2159  64.7415 0001467  86.2121 273.9039 15.08835129103558,6917.895,95.438,540.775,538.745,0.0
